COSMOS 1743             
1 16719U 86034A   25316.65641374  .00049157  00000+0  86851-3 0  9994
2 16719  82.5377 195.7861 0007310  17.4469 342.7031 15.50115198162079
SL-14 R/B               
1 16792U 86046B   25316.60423255  .00000938  00000+0  10564-3 0  9991
2 16792  82.4833 190.7715 0021673 254.2886 105.5939 14.85440667109028
SL-14 R/B               
1 16882U 86055B   25316.55699714  .00001216  00000+0  13780-3 0  9993
2 16882  82.5216 236.7292 0019162   4.6852 168.3309 14.85482443101977
AJISAI (EGS)            
1 16908U 86061A   25316.80880955 -.00000089  00000+0  60730-4 0  9992
2 16908  50.0082  92.7509 0011190 350.5142 169.7921 12.44514150453447
COSMOS 1812             
1 17295U 87003A   25316.75325542  .00107104  00000+0  90474-3 0  9991
2 17295  82.4887 324.3228 0004990 138.2249 221.9394 15.69396798125942
SL-14 R/B               
1 17567U 87024B   25316.14142646  .00000760  00000+0  84148-4 0  9993
2 17567  82.5304 203.1944 0016899 292.3066  67.6359 14.85977911 70672
COSMOS 1833             
1 17589U 87027A   25316.70229169 -.00000200  00000+0 -81476-4 0  9990
2 17589  70.9150 211.9202 0021212  14.0630 346.1077 14.13020013993782
SL-16 R/B               
1 17590U 87027B   25316.87430076 -.00000022  00000+0  12979-4 0  9994
2 17590  71.0009 162.6502 0007206 291.0953  68.9400 14.17147652998839
SL-14 R/B               
1 17912U 87038B   25316.68236889  .00001130  00000+0  12867-3 0  9994
2 17912  82.5037  47.0051 0019122 187.1213 172.9734 14.85217063 61863
COSMOS 1844             
1 17973U 87041A   25316.86127788  .00000503  00000+0  28578-3 0  9991
2 17973  70.8988 280.5881 0031680 202.0499 157.9263 14.14521821987067
SL-14 R/B               
1 18153U 87055B   25316.67955705  .00001124  00000+0  12707-3 0  9991
2 18153  82.4974  99.3162 0021713  43.5270 316.7654 14.85472974 52560
COSMOS 1867             
1 18187U 87060A   25316.84142132  .00000070  00000+0  63864-4 0  9995
2 18187  65.0103 273.9280 0013709 268.1436  91.8078 14.31478837  3218
