CCSDS_OMM_VERS = 2.0
CREATION_DATE  = 
ORIGINATOR     = 

OBJECT_NAME    = COSMOS 1743
OBJECT_ID      = 1986-034A
CENTER_NAME    = EARTH
REF_FRAME      = TEME
TIME_SYSTEM    = UTC
MEAN_ELEMENT_THEORY = SGP/SGP4

EPOCH          = 2025-11-12T15:45:14.147136
MEAN_MOTION    = 15.50115198
ECCENTRICITY   = .000731
INCLINATION    = 82.5377
RA_OF_ASC_NODE = 195.7861
ARG_OF_PERICENTER = 17.4469
MEAN_ANOMALY   = 342.7031

EPHEMERIS_TYPE = 0
CLASSIFICATION_TYPE = U
NORAD_CAT_ID   = 16719
ELEMENT_SET_NO = 999
REV_AT_EPOCH   = 16207
BSTAR          = .86851E-3
MEAN_MOTION_DOT = .49157E-3
MEAN_MOTION_DDOT = 0

CCSDS_OMM_VERS = 2.0
CREATION_DATE  = 
ORIGINATOR     = 

OBJECT_NAME    = SL-14 R/B
OBJECT_ID      = 1986-046B
CENTER_NAME    = EARTH
REF_FRAME      = TEME
TIME_SYSTEM    = UTC
MEAN_ELEMENT_THEORY = SGP/SGP4

EPOCH          = 2025-11-12T14:30:05.692320
MEAN_MOTION    = 14.85440667
ECCENTRICITY   = .0021673
INCLINATION    = 82.4833
RA_OF_ASC_NODE = 190.7715
ARG_OF_PERICENTER = 254.2886
MEAN_ANOMALY   = 105.5939

EPHEMERIS_TYPE = 0
CLASSIFICATION_TYPE = U
NORAD_CAT_ID   = 16792
ELEMENT_SET_NO = 999
REV_AT_EPOCH   = 10902
BSTAR          = .10564E-3
MEAN_MOTION_DOT = .938E-5
MEAN_MOTION_DDOT = 0

CCSDS_OMM_VERS = 2.0
CREATION_DATE  = 
ORIGINATOR     = 

OBJECT_NAME    = SL-14 R/B
OBJECT_ID      = 1986-055B
CENTER_NAME    = EARTH
REF_FRAME      = TEME
TIME_SYSTEM    = UTC
MEAN_ELEMENT_THEORY = SGP/SGP4

EPOCH          = 2025-11-12T13:22:04.552896
MEAN_MOTION    = 14.85482443
ECCENTRICITY   = .0019162
INCLINATION    = 82.5216
RA_OF_ASC_NODE = 236.7292
ARG_OF_PERICENTER = 4.6852
MEAN_ANOMALY   = 168.3309

EPHEMERIS_TYPE = 0
CLASSIFICATION_TYPE = U
NORAD_CAT_ID   = 16882
ELEMENT_SET_NO = 999
REV_AT_EPOCH   = 10197
BSTAR          = .1378E-3
MEAN_MOTION_DOT = .1216E-4
MEAN_MOTION_DDOT = 0

CCSDS_OMM_VERS = 2.0
CREATION_DATE  = 
ORIGINATOR     = 

OBJECT_NAME    = AJISAI (EGS)
OBJECT_ID      = 1986-061A
CENTER_NAME    = EARTH
REF_FRAME      = TEME
TIME_SYSTEM    = UTC
MEAN_ELEMENT_THEORY = SGP/SGP4

EPOCH          = 2025-11-12T19:24:41.145120
MEAN_MOTION    = 12.44514150
ECCENTRICITY   = .001119
INCLINATION    = 50.0082
RA_OF_ASC_NODE = 92.7509
ARG_OF_PERICENTER = 350.5142
MEAN_ANOMALY   = 169.7921

EPHEMERIS_TYPE = 0
CLASSIFICATION_TYPE = U
NORAD_CAT_ID   = 16908
ELEMENT_SET_NO = 999
REV_AT_EPOCH   = 45344
BSTAR          = .6073E-4
MEAN_MOTION_DOT = -.89E-6
MEAN_MOTION_DDOT = 0

CCSDS_OMM_VERS = 2.0
CREATION_DATE  = 
ORIGINATOR     = 

OBJECT_NAME    = COSMOS 1812
OBJECT_ID      = 1987-003A
CENTER_NAME    = EARTH
REF_FRAME      = TEME
TIME_SYSTEM    = UTC
MEAN_ELEMENT_THEORY = SGP/SGP4

EPOCH          = 2025-11-12T18:04:41.268288
MEAN_MOTION    = 15.69396798
ECCENTRICITY   = .000499
INCLINATION    = 82.4887
RA_OF_ASC_NODE = 324.3228
ARG_OF_PERICENTER = 138.2249
MEAN_ANOMALY   = 221.9394

EPHEMERIS_TYPE = 0
CLASSIFICATION_TYPE = U
NORAD_CAT_ID   = 17295
ELEMENT_SET_NO = 999
REV_AT_EPOCH   = 12594
BSTAR          = .90474E-3
MEAN_MOTION_DOT = .107104E-2
MEAN_MOTION_DDOT = 0

CCSDS_OMM_VERS = 2.0
CREATION_DATE  = 
ORIGINATOR     = 

OBJECT_NAME    = SL-14 R/B
OBJECT_ID      = 1987-024B
CENTER_NAME    = EARTH
REF_FRAME      = TEME
TIME_SYSTEM    = UTC
MEAN_ELEMENT_THEORY = SGP/SGP4

EPOCH          = 2025-11-12T03:23:39.246144
MEAN_MOTION    = 14.85977911
ECCENTRICITY   = .00168994
INCLINATION    = 82.5304
RA_OF_ASC_NODE = 203.1944
ARG_OF_PERICENTER = 292.3066
MEAN_ANOMALY   = 67.6359

EPHEMERIS_TYPE = 0
CLASSIFICATION_TYPE = U
NORAD_CAT_ID   = 17567
ELEMENT_SET_NO = 999
REV_AT_EPOCH   = 7067
BSTAR          = .84148482E-4
MEAN_MOTION_DOT = .76E-5
MEAN_MOTION_DDOT = 0

CCSDS_OMM_VERS = 2.0
CREATION_DATE  = 
ORIGINATOR     = 

OBJECT_NAME    = COSMOS 1833
OBJECT_ID      = 1987-027A
CENTER_NAME    = EARTH
REF_FRAME      = TEME
TIME_SYSTEM    = UTC
MEAN_ELEMENT_THEORY = SGP/SGP4

EPOCH          = 2025-11-12T16:51:18.002016
MEAN_MOTION    = 14.13020013
ECCENTRICITY   = .0021212
INCLINATION    = 70.9150
RA_OF_ASC_NODE = 211.9202
ARG_OF_PERICENTER = 14.0630
MEAN_ANOMALY   = 346.1077

EPHEMERIS_TYPE = 0
CLASSIFICATION_TYPE = U
NORAD_CAT_ID   = 17589
ELEMENT_SET_NO = 999
REV_AT_EPOCH   = 99378
BSTAR          = -.81476E-4
MEAN_MOTION_DOT = -.2E-5
MEAN_MOTION_DDOT = 0

CCSDS_OMM_VERS = 2.0
CREATION_DATE  = 
ORIGINATOR     = 

OBJECT_NAME    = SL-16 R/B
OBJECT_ID      = 1987-027B
CENTER_NAME    = EARTH
REF_FRAME      = TEME
TIME_SYSTEM    = UTC
MEAN_ELEMENT_THEORY = SGP/SGP4

EPOCH          = 2025-11-12T20:58:59.585664
MEAN_MOTION    = 14.17147652
ECCENTRICITY   = .0007206
INCLINATION    = 71.0009
RA_OF_ASC_NODE = 162.6502
ARG_OF_PERICENTER = 291.0953
MEAN_ANOMALY   = 68.9400

EPHEMERIS_TYPE = 0
CLASSIFICATION_TYPE = U
NORAD_CAT_ID   = 17590
ELEMENT_SET_NO = 999
REV_AT_EPOCH   = 99883
BSTAR          = .12979E-4
MEAN_MOTION_DOT = -.22E-6
MEAN_MOTION_DDOT = 0

CCSDS_OMM_VERS = 2.0
CREATION_DATE  = 
ORIGINATOR     = 

OBJECT_NAME    = SL-14 R/B
OBJECT_ID      = 1987-038B
CENTER_NAME    = EARTH
REF_FRAME      = TEME
TIME_SYSTEM    = UTC
MEAN_ELEMENT_THEORY = SGP/SGP4

EPOCH          = 2025-11-12T16:22:36.672096
MEAN_MOTION    = 14.85217063
ECCENTRICITY   = .0019122
INCLINATION    = 82.5037
RA_OF_ASC_NODE = 47.0051
ARG_OF_PERICENTER = 187.1213
MEAN_ANOMALY   = 172.9734

EPHEMERIS_TYPE = 0
CLASSIFICATION_TYPE = U
NORAD_CAT_ID   = 17912
ELEMENT_SET_NO = 999
REV_AT_EPOCH   = 6186
BSTAR          = .12867E-3
MEAN_MOTION_DOT = .113E-4
MEAN_MOTION_DDOT = 0

CCSDS_OMM_VERS = 2.0
CREATION_DATE  = 
ORIGINATOR     = 

OBJECT_NAME    = COSMOS 1844
OBJECT_ID      = 1987-041A
CENTER_NAME    = EARTH
REF_FRAME      = TEME
TIME_SYSTEM    = UTC
MEAN_ELEMENT_THEORY = SGP/SGP4

EPOCH          = 2025-11-12T20:40:14.408832
MEAN_MOTION    = 14.14521821
ECCENTRICITY   = .003168
INCLINATION    = 70.8988
RA_OF_ASC_NODE = 280.5881
ARG_OF_PERICENTER = 202.0499
MEAN_ANOMALY   = 157.9263

EPHEMERIS_TYPE = 0
CLASSIFICATION_TYPE = U
NORAD_CAT_ID   = 17973
ELEMENT_SET_NO = 999
REV_AT_EPOCH   = 98706
BSTAR          = .28578E-3
MEAN_MOTION_DOT = .503E-5
MEAN_MOTION_DDOT = 0

CCSDS_OMM_VERS = 2.0
CREATION_DATE  = 
ORIGINATOR     = 

OBJECT_NAME    = SL-14 R/B
OBJECT_ID      = 1987-055B
CENTER_NAME    = EARTH
REF_FRAME      = TEME
TIME_SYSTEM    = UTC
MEAN_ELEMENT_THEORY = SGP/SGP4

EPOCH          = 2025-11-12T16:18:33.729120
MEAN_MOTION    = 14.85472974
ECCENTRICITY   = .0021713
INCLINATION    = 82.4974
RA_OF_ASC_NODE = 99.3162
ARG_OF_PERICENTER = 43.5270
MEAN_ANOMALY   = 316.7654

EPHEMERIS_TYPE = 0
CLASSIFICATION_TYPE = U
NORAD_CAT_ID   = 18153
ELEMENT_SET_NO = 999
REV_AT_EPOCH   = 5256
BSTAR          = .12707E-3
MEAN_MOTION_DOT = .1124E-4
MEAN_MOTION_DDOT = 0

CCSDS_OMM_VERS = 2.0
CREATION_DATE  = 
ORIGINATOR     = 

OBJECT_NAME    = COSMOS 1867
OBJECT_ID      = 1987-060A
CENTER_NAME    = EARTH
REF_FRAME      = TEME
TIME_SYSTEM    = UTC
MEAN_ELEMENT_THEORY = SGP/SGP4

EPOCH          = 2025-11-12T20:11:38.802048
MEAN_MOTION    = 14.31478837
ECCENTRICITY   = .0013709
INCLINATION    = 65.0103
RA_OF_ASC_NODE = 273.9280
ARG_OF_PERICENTER = 268.1436
MEAN_ANOMALY   = 91.8078

EPHEMERIS_TYPE = 0
CLASSIFICATION_TYPE = U
NORAD_CAT_ID   = 18187
ELEMENT_SET_NO = 999
REV_AT_EPOCH   = 321
BSTAR          = .63864E-4
MEAN_MOTION_DOT = .7E-6
MEAN_MOTION_DDOT = 0

